#dP2024  9  9  0  0  0.00000000      96 __u+U IGS20 FIT  IAC
## 2331  86400.00000000   900.00000000 60562 0.0000000000000
+  133   C01C02C03C04C05C06C07C08C09C10C11C12C13C14C16C19C20
+        C21C22C23C24C25C26C27C28C29C30C32C33C34C35C36C37C38
+        C39C40C41C42C43C44C45C59C60C62E02E03E04E05E06E07E08
+        E09E10E11E12E13E14E15E18E19E21E24E25E26E27E29E30E31
+        E33E34E36G01G02G03G04G05G06G07G08G09G10G11G12G13G14
+        G15G16G17G18G19G20G21G22G23G24G25G26G27G28G29G30G31
+        G32J02J03J04J07R01R02R03R04R05R06R07R08R09R10R11R12
+        R13R14R15R16R17R18R19R20R21R22R23R24R25R26  0  0  0
++        16 16 16 16 16 10 10 10 10 10 12  9  9  9 10  7  7
++         7  7  8  7  8  7  7  7  7  7  7  7  7  7  7  8  8
++         8  8  8  8  7  7  7 17 16  0  4  5  4  5  5  5  5
++         5  5  4  5  4  5  4  5  4  4  5  5  5  4  5  4  5
++         5  5  5 10  5  4  4  4  4  4  4  4  4  4  4  4  4
++         4  4  4  4  4  4  4  4  4  5  4  4  4  4  4  4  4
++         4 10 10 11 16  8  6  6  6  6 15  6  6  6 15  6  6
++        15  6  6  6  6  6  7  7  6  6 15  6  8  9  0  0  0
%c M  cc GPS ccc cccc cccc cccc cccc ccccc ccccc ccccc ccccc
%c cc cc ccc ccc cccc cccc cccc cccc ccccc ccccc ccccc ccccc
%f  0.0000000  0.000000000  0.00000000000  0.000000000000000
%f  0.0000000  0.000000000  0.00000000000  0.000000000000000
%i    0    0    0    0      0      0      0      0         0
%i    0    0    0    0      0      0      0      0         0
/* INFORMATION & ANALYSIS CENTER (IAC)            RAPID DATA
/* S/V CLOCKS ARE ALIGNED TO GNSS TIME                      
/* G:C1WC2W R:C1PC2P E:C1XC5X C:C2IC6I J:C1CC2S             
/* PCV:IGS20_2317 OL/AL:FES2004  NONE     YN ORB:CoN CLK:CoN
*  2024 09 09  8  0  0.00000000
PC01 -34339.154088  24448.076680     35.677677    921.278417
PC02   4338.578722  41924.999911   1881.659163    903.779379
PC03 -14799.688708  39507.585200    527.523186    883.308939
PC04 -39642.086254  14295.276685   -484.269638    424.321307
PC05  21900.179558  36000.772748   1665.421969   -385.185623
PC06   -833.820943  34262.017721  24835.336038    203.322700
PC07 -15369.113660  27404.355581 -28077.068555   -388.571243
PC08 -15839.492164  38342.851596   6698.295976   -520.896040
PC09   5104.438613  38199.947694  18322.656345   -304.079469
PC10  -7598.118535  28071.825629 -30275.367416   -168.608702
PC11   -429.422845 -18228.593753  21202.799791 999999.999999
PC12  17241.160931  -4955.499921  21414.406422   -265.197108
PC13  -8922.265907  38453.211259  14522.874714    434.849141
PC14  10347.703824 -18298.743991 -18324.517631   -176.917515
PC16  -3700.695126  31992.170195  27709.488162   -790.441625
PC19   -190.952581  16621.876978  22430.771098   -934.058333
PC20 -17702.613137  17404.683947  12773.158032   -899.850710
PC21  26225.729553  -7606.556623   5694.816684   -933.155205
PC22  18583.848987   6261.508533  19829.476000    117.698152
PC23 -12135.743353 -16578.563832  18896.245788   -830.825933
PC24  11230.468814 -22283.194137 -12531.153773    834.034461
PC25  -1114.970262 -27562.606791   4287.367766    501.259063
PC26  16357.057700  -4386.184239 -22202.227458   -346.211738
PC27 -22687.952880  -2489.883773 -16073.549702    366.402618
PC28 -23370.602087 -15111.525233  -2105.833738    283.616150
PC29   9538.062149  20369.049377 -16517.689344    333.028267
PC30 -10391.527037  12390.286606 -22748.778150   -196.267057
PC32 -26180.406934   7739.852780  -5814.076733   -728.211528
PC33    155.923485 -16668.310070 -22385.929976   -971.974847
PC34   8760.649453 -13556.491580  22753.066196    517.255003
PC35  23774.526413  14559.372952   1551.731193    265.731603
PC36    813.774341  27480.103387  -4722.021184    179.211753
PC37 -16448.412770   3921.509428  22208.118481   -899.782369
PC38 -19519.119075  37181.861010  -2521.232479    178.299042
PC39  -7021.941391  27893.215294  30975.571684     -9.804049
PC40 -21349.878758  20672.369335 -29998.914197    -90.200484
PC41 -17902.174181  -6848.813431 -20243.868230   -912.419541
PC42  19063.959653 -16992.231595 -11183.396236   -474.404251
PC43  -8536.549318 -20331.799139  17085.628970     85.141472
PC44  22908.527916   1677.704396  15848.794924    588.062309
PC45  11748.073481  17028.168425 -18716.081912   -128.927167
PC59 -32305.752115  27082.980414   1091.790031     -0.270432
PC60   7288.955286  41510.339454    725.204529      0.016198
PC62      0.000000      0.000000      0.000000 999999.999999
PE02  22663.904426  -8042.946223 -17265.860326    157.888511
PE03  28874.871802    620.871234  -6462.669108   -139.193072
PE04 -16517.625754  12144.994262  21352.108999    -28.631833
PE05  23940.801560  12719.878371  11876.116182   4782.594149
PE06  -6017.926045  16171.941438  24031.659828    -23.930421
PE07  -4604.424243 -17447.361190 -23467.628276   -141.088373
PE08  17289.537800 -11599.228117 -21042.421205   -332.653522
PE09   4504.348924  17304.823216  23580.623357   -583.206641
PE10  -1289.574155  25357.735239 -15207.776025   -655.104547
PE11   6152.322302  28386.584317  -5717.866492   1738.456533
PE12  -7816.398649  19052.549743 -21268.481779  -1202.484369
PE13  -5807.821071 -28340.053077   6279.090439    -24.610105
PE14 -24177.810816  11140.439392 -17804.756311    215.221376
PE15   8164.556366 -18474.503145  21643.819341   -126.026125
PE18   9099.043028 -14013.437942  18167.608947    527.179972
PE19 -29152.839939  -2146.741466   4661.270618    592.915022
PE21 -13144.486173 -10561.960924  24332.836413   -615.809532
PE24  -4566.848716  23667.448236 -17177.184247   -977.412442
PE25  12807.344775  10949.362389 -24326.146058      8.883594
PE26 -16375.808577 -21056.053093 -12840.172038   -274.408730
PE27   4410.030031 -23620.745764  17297.272924   -447.851588
PE29 -24164.651448 -12671.154771 -11472.078664    -28.885872
PE30  19202.445195 -22533.708012    156.241921   -698.237588
PE31 -19145.156510  22573.760897   -135.866955    -35.276691
PE33 -17224.253991  -2613.010274 -23931.090635     15.197997
PE34  17121.243092   2030.340682  24052.959027   -133.293534
PE36  16118.506021  21480.211086  12447.970437   -280.819568
PG01  -3423.333168  21760.115829 -14972.046800    201.748625
PG02  18023.357665   5606.944417  19287.256648   -361.817745
PG03  19358.616998  -7761.513995  16211.997484    531.306037
PG04  26060.737680    245.894716  -5493.490766    440.273142
PG05 -12584.649093  -8241.383614 -22073.647787   -185.995286
PG06  -3924.202805 -24751.752285   8700.154577     43.109406
PG07  10478.509333 -12481.183114 -20356.888399    -40.100714
PG08  25165.662934   6705.966437  -6389.009050    346.218163
PG09  20547.609726  -8400.276314 -14718.129168    348.941194
PG10  -8329.595273  22771.785912  10645.534527   -119.522186
PG11 -12695.406385 -22634.922439  -5791.244352   -732.483031
PG12 -19207.842114   3284.710970  17746.778574   -536.710043
PG13 -19429.688311 -13826.783131 -12168.936373    675.504780
PG14  11653.233670 -22756.609641   6796.803108    491.509083
PG15 -25635.632299  -3971.200491  -6616.538541    202.203064
PG16   8942.289069  12813.665309 -21770.045041   -185.875274
PG17   5589.183743 -14417.134061  22031.275625    632.076152
PG18  -9901.123721  13126.371063 -20788.350128   -652.227044
PG19  -4582.008476 -15782.971166  20797.732458    535.714172
PG20  -5734.366210 -18001.573293 -18659.071692    370.822777
PG21  18829.912006  11874.796753  15646.866750    102.092083
PG22   6067.082796 -21852.326312  14476.353069    -60.040921
PG23 -16424.145208  20595.890881  -2227.115214    316.158760
PG24 -18636.610878  -7957.012097  16932.567127   -486.784432
PG25 -19334.698676  15013.245312   9635.504409    499.589258
PG26    229.277767  21456.346238 -15568.264198     82.885718
PG27  17889.816872  12865.244382 -15420.218661    -33.768497
PG28   3070.002917  24152.650558  10600.388173   -404.491657
PG29 -22988.466682   4337.016265 -12740.208990   -579.014128
PG30   2947.140093 -21412.497429 -15105.941042   -324.675498
PG31  10708.146373  24047.191786  -1405.816189   -224.914329
PG32  -3122.517158  14996.491683  21905.069887   -598.842542
PJ02 -35836.513420  22183.590267   2810.480640     -0.973525
PJ03 -21029.606594  22017.850746 -24542.235941     -2.799367
PJ04 -27593.091362  30713.667743  14388.728425     22.333161
PJ07 -25387.618083  33660.521268     48.703563      0.004488
PR01 -15594.507509  12279.791974  16020.522347     97.192418
PR02   1482.196187  10708.317273  23140.381980    -24.570834
PR03  18516.018509   3682.134453  17228.343787    107.215385
PR04  24944.954613  -4932.990542   2171.213183    253.838500
PR05  18219.165501 -10983.573788 -14091.191454    137.398429
PR06  -3270.088342 -10443.696486 -23058.534401   -179.674438
PR07 -18862.709232  -3393.499600 -16767.699577     90.534281
PR08 -24858.217067   5313.999632  -1798.462772     -6.385061
PR09    961.862345 -23582.957831   9588.285278    208.128391
PR10  -6473.401166 -13827.928144  20454.506371   -214.675460
PR11 -12168.393907   5255.359930  21811.323305     12.355064
PR12 -10228.105315  21852.315411   8291.220403     44.636762
PR13  -2942.840497  24319.200604  -7117.720856    -51.224685
PR14   7591.921208  11691.185933 -21350.740999     26.909958
PR15  12490.830165  -6952.695009 -21100.128859     76.061955
PR16  10128.593308 -21810.567342  -8438.684649     28.974458
PR17  18781.969269  16591.170454   4621.853741    120.405842
PR18  16627.044619   5510.221585  18576.443637    161.167617
PR19   7724.065109  -6980.347561  23288.047765   -290.721065
PR20  -9032.641787 -19596.932491  13589.872799   -118.836781
PR21 -18516.243446 -17131.802791  -3915.151050   -132.947564
PR22 -16232.047662  -4647.243162 -19091.552923     51.147521
PR23  -5330.191321   9536.592667 -23054.268090   -132.262237
PR24  10133.204730  19450.172196 -12983.896301    -71.280986
PR25 -18274.930754 -17124.013308  -4917.359236   -100.860205
PR26 -24845.872222   4697.134076  -3415.948577     21.338890
EOF
